FLOCK 4BE-3             
1 60561U 24149CX  26187.68125652  .00014458  00000+0  33881-3 0  9994
2 60561  97.3687 271.7876 0004276 195.5523 164.5594 15.42187054105341
FLOCK 4BE-19            
1 60563U 24149CZ  26187.23513863  .00025084  00000+0  52666-3 0  9991
2 60563  97.3739 272.9703 0005037 204.1189 155.9825 15.45337330105364
FLOCK 4G-8              
1 62613U 25009E   26187.70662757  .00008956  00000+0  30967-3 0  9993
2 62613  97.3999 269.6334 0003228 225.2962 134.8016 15.30132696 81909
FLOCK 4G-13             
1 62621U 25009N   26187.69691152  .00073306  00000+0  13984-2 0  9991
2 62621  97.3940 271.3525 0005812 219.5669 140.5158 15.47881458 82016
FLOCK 4G-9              
1 62622U 25009P   26187.85070127  .00007155  00000+0  26136-3 0  9996
2 62622  97.3951 268.6586 0003367 241.4340 118.6561 15.28410728 81861
FLOCK 4G-7              
1 62624U 25009R   26187.68851670  .00008228  00000+0  28837-3 0  9991
2 62624  97.3936 268.8992 0001711 212.1467 147.9669 15.29719044 81885
FLOCK 4G-12             
1 62625U 25009S   26187.68335520  .00009079  00000+0  31855-3 0  9992
2 62625  97.4016 269.4355 0003303 221.0229 139.0764 15.29650119 81885
FLOCK 4G-11             
1 62629U 25009W   26187.73423478  .00008422  00000+0  29478-3 0  9991
2 62629  97.3917 269.0542 0001757 217.5384 142.5734 15.29757561 81903
FLOCK 4G-26             
1 62633U 25009AA  26187.68342845  .00010157  00000+0  35289-3 0  9993
2 62633  97.4011 269.5935 0002795 207.1801 152.9293 15.29939127 81890
FLOCK 4G-28             
1 62634U 25009AB  26187.22178483  .00009040  00000+0  26711-3 0  9998
2 62634  97.4018 271.8463 0001315 180.8525 179.2717 15.35174587 82002
FLOCK 4G-20             
1 62636U 25009AD  26187.71124117  .00124758  00000+0  16001-2 0  9993
2 62636  97.3842 272.8007 0005678 224.8181 135.2617 15.58709212 82157
FLOCK 4G-24             
1 62637U 25009AE  26187.63099978  .00008308  00000+0  28641-3 0  9997
2 62637  97.4018 269.8414 0002843 192.4276 167.6895 15.30254112 81901
FLOCK 4G-3              
1 62639U 25009AG  26187.81763993  .00007527  00000+0  26375-3 0  9998
2 62639  97.4020 269.7416 0002376 195.9713 164.1453 15.29755787 81906
FLOCK 4G-27             
1 62641U 25009AJ  26187.70605470  .00009352  00000+0  32762-3 0  9999
2 62641  97.3924 268.9896 0001710 194.1657 165.9535 15.29695085 81884
FLOCK 4G-29             
1 62642U 25009AK  26187.69172545  .00007302  00000+0  25589-3 0  9992
2 62642  97.4013 269.5768 0002530 192.8924 167.2252 15.29763032 81882
FLOCK 4G-22             
1 62645U 25009AN  26187.70965235  .00008776  00000+0  30795-3 0  9994
2 62645  97.4000 269.6311 0002131 185.6343 174.4873 15.29657936 81905
