{"fetched_at":"2026-07-07T07:58:12.386Z","source":"https://celestrak.org/NORAD/elements/gp.php?GROUP=planet&FORMAT=JSON","constellation":"superdove","records":[{"OBJECT_NAME":"FLOCK 4BE-3","OBJECT_ID":"2024-149CX","EPOCH":"2026-07-06T16:21:00.563328","CLASSIFICATION_TYPE":"U","MEAN_MOTION":15.42187054,"ECCENTRICITY":0.0004276,"INCLINATION":97.3687,"RA_OF_ASC_NODE":271.7876,"ARG_OF_PERICENTER":195.5523,"MEAN_ANOMALY":164.5594,"EPHEMERIS_TYPE":0,"NORAD_CAT_ID":60561,"ELEMENT_SET_NO":999,"REV_AT_EPOCH":10534,"BSTAR":0.00033881,"MEAN_MOTION_DOT":0.00014458,"MEAN_MOTION_DDOT":0},{"OBJECT_NAME":"FLOCK 4BE-19","OBJECT_ID":"2024-149CZ","EPOCH":"2026-07-06T05:38:35.977632","CLASSIFICATION_TYPE":"U","MEAN_MOTION":15.4533733,"ECCENTRICITY":0.00050378,"INCLINATION":97.3739,"RA_OF_ASC_NODE":272.9703,"ARG_OF_PERICENTER":204.1189,"MEAN_ANOMALY":155.9825,"EPHEMERIS_TYPE":0,"NORAD_CAT_ID":60563,"ELEMENT_SET_NO":999,"REV_AT_EPOCH":10536,"BSTAR":0.00052665704,"MEAN_MOTION_DOT":0.00025084,"MEAN_MOTION_DDOT":0},{"OBJECT_NAME":"FLOCK 4G-8","OBJECT_ID":"2025-009E","EPOCH":"2026-07-06T16:57:32.622048","CLASSIFICATION_TYPE":"U","MEAN_MOTION":15.30132696,"ECCENTRICITY":0.0003228,"INCLINATION":97.3999,"RA_OF_ASC_NODE":269.6334,"ARG_OF_PERICENTER":225.2962,"MEAN_ANOMALY":134.8016,"EPHEMERIS_TYPE":0,"NORAD_CAT_ID":62613,"ELEMENT_SET_NO":999,"REV_AT_EPOCH":8190,"BSTAR":0.00030967,"MEAN_MOTION_DOT":0.00008956,"MEAN_MOTION_DDOT":0},{"OBJECT_NAME":"FLOCK 4G-13","OBJECT_ID":"2025-009N","EPOCH":"2026-07-06T16:43:33.155328","CLASSIFICATION_TYPE":"U","MEAN_MOTION":15.47881458,"ECCENTRICITY":0.0005812,"INCLINATION":97.394,"RA_OF_ASC_NODE":271.3525,"ARG_OF_PERICENTER":219.5669,"MEAN_ANOMALY":140.5158,"EPHEMERIS_TYPE":0,"NORAD_CAT_ID":62621,"ELEMENT_SET_NO":999,"REV_AT_EPOCH":8201,"BSTAR":0.0013984,"MEAN_MOTION_DOT":0.00073306,"MEAN_MOTION_DDOT":0},{"OBJECT_NAME":"FLOCK 4G-9","OBJECT_ID":"2025-009P","EPOCH":"2026-07-06T20:25:00.589728","CLASSIFICATION_TYPE":"U","MEAN_MOTION":15.28410728,"ECCENTRICITY":0.0003367,"INCLINATION":97.3951,"RA_OF_ASC_NODE":268.6586,"ARG_OF_PERICENTER":241.434,"MEAN_ANOMALY":118.6561,"EPHEMERIS_TYPE":0,"NORAD_CAT_ID":62622,"ELEMENT_SET_NO":999,"REV_AT_EPOCH":8186,"BSTAR":0.00026136,"MEAN_MOTION_DOT":0.00007155,"MEAN_MOTION_DDOT":0},{"OBJECT_NAME":"FLOCK 4G-7","OBJECT_ID":"2025-009R","EPOCH":"2026-07-06T16:31:27.842880","CLASSIFICATION_TYPE":"U","MEAN_MOTION":15.29719044,"ECCENTRICITY":0.0001711,"INCLINATION":97.3936,"RA_OF_ASC_NODE":268.8992,"ARG_OF_PERICENTER":212.1467,"MEAN_ANOMALY":147.9669,"EPHEMERIS_TYPE":0,"NORAD_CAT_ID":62624,"ELEMENT_SET_NO":999,"REV_AT_EPOCH":8188,"BSTAR":0.00028837,"MEAN_MOTION_DOT":0.00008228,"MEAN_MOTION_DDOT":0},{"OBJECT_NAME":"FLOCK 4G-12","OBJECT_ID":"2025-009S","EPOCH":"2026-07-06T16:24:01.889280","CLASSIFICATION_TYPE":"U","MEAN_MOTION":15.29650119,"ECCENTRICITY":0.0003303,"INCLINATION":97.4016,"RA_OF_ASC_NODE":269.4355,"ARG_OF_PERICENTER":221.0229,"MEAN_ANOMALY":139.0764,"EPHEMERIS_TYPE":0,"NORAD_CAT_ID":62625,"ELEMENT_SET_NO":999,"REV_AT_EPOCH":8188,"BSTAR":0.00031855,"MEAN_MOTION_DOT":0.00009079,"MEAN_MOTION_DDOT":0},{"OBJECT_NAME":"FLOCK 4G-11","OBJECT_ID":"2025-009W","EPOCH":"2026-07-06T17:37:17.884992","CLASSIFICATION_TYPE":"U","MEAN_MOTION":15.29757561,"ECCENTRICITY":0.0001757,"INCLINATION":97.3917,"RA_OF_ASC_NODE":269.0542,"ARG_OF_PERICENTER":217.5384,"MEAN_ANOMALY":142.5734,"EPHEMERIS_TYPE":0,"NORAD_CAT_ID":62629,"ELEMENT_SET_NO":999,"REV_AT_EPOCH":8190,"BSTAR":0.00029478,"MEAN_MOTION_DOT":0.00008422,"MEAN_MOTION_DDOT":0},{"OBJECT_NAME":"FLOCK 4G-26","OBJECT_ID":"2025-009AA","EPOCH":"2026-07-06T16:24:08.218080","CLASSIFICATION_TYPE":"U","MEAN_MOTION":15.29939127,"ECCENTRICITY":0.0002795,"INCLINATION":97.4011,"RA_OF_ASC_NODE":269.5935,"ARG_OF_PERICENTER":207.1801,"MEAN_ANOMALY":152.9293,"EPHEMERIS_TYPE":0,"NORAD_CAT_ID":62633,"ELEMENT_SET_NO":999,"REV_AT_EPOCH":8189,"BSTAR":0.00035289,"MEAN_MOTION_DOT":0.00010157,"MEAN_MOTION_DDOT":0},{"OBJECT_NAME":"FLOCK 4G-28","OBJECT_ID":"2025-009AB","EPOCH":"2026-07-06T05:19:22.209312","CLASSIFICATION_TYPE":"U","MEAN_MOTION":15.35174587,"ECCENTRICITY":0.00013158,"INCLINATION":97.4018,"RA_OF_ASC_NODE":271.8463,"ARG_OF_PERICENTER":180.8525,"MEAN_ANOMALY":179.2717,"EPHEMERIS_TYPE":0,"NORAD_CAT_ID":62634,"ELEMENT_SET_NO":999,"REV_AT_EPOCH":8200,"BSTAR":0.00026710962,"MEAN_MOTION_DOT":0.0000904,"MEAN_MOTION_DDOT":0},{"OBJECT_NAME":"FLOCK 4G-20","OBJECT_ID":"2025-009AD","EPOCH":"2026-07-06T17:04:11.237088","CLASSIFICATION_TYPE":"U","MEAN_MOTION":15.58709212,"ECCENTRICITY":0.0005678,"INCLINATION":97.3842,"RA_OF_ASC_NODE":272.8007,"ARG_OF_PERICENTER":224.8181,"MEAN_ANOMALY":135.2617,"EPHEMERIS_TYPE":0,"NORAD_CAT_ID":62636,"ELEMENT_SET_NO":999,"REV_AT_EPOCH":8215,"BSTAR":0.0016001,"MEAN_MOTION_DOT":0.00124758,"MEAN_MOTION_DDOT":0},{"OBJECT_NAME":"FLOCK 4G-24","OBJECT_ID":"2025-009AE","EPOCH":"2026-07-06T15:08:38.380992","CLASSIFICATION_TYPE":"U","MEAN_MOTION":15.30254112,"ECCENTRICITY":0.0002843,"INCLINATION":97.4018,"RA_OF_ASC_NODE":269.8414,"ARG_OF_PERICENTER":192.4276,"MEAN_ANOMALY":167.6895,"EPHEMERIS_TYPE":0,"NORAD_CAT_ID":62637,"ELEMENT_SET_NO":999,"REV_AT_EPOCH":8190,"BSTAR":0.00028641,"MEAN_MOTION_DOT":0.00008308,"MEAN_MOTION_DDOT":0},{"OBJECT_NAME":"FLOCK 4G-3","OBJECT_ID":"2025-009AG","EPOCH":"2026-07-06T19:37:24.089952","CLASSIFICATION_TYPE":"U","MEAN_MOTION":15.29755787,"ECCENTRICITY":0.0002376,"INCLINATION":97.402,"RA_OF_ASC_NODE":269.7416,"ARG_OF_PERICENTER":195.9713,"MEAN_ANOMALY":164.1453,"EPHEMERIS_TYPE":0,"NORAD_CAT_ID":62639,"ELEMENT_SET_NO":999,"REV_AT_EPOCH":8190,"BSTAR":0.00026375,"MEAN_MOTION_DOT":0.00007527,"MEAN_MOTION_DDOT":0},{"OBJECT_NAME":"FLOCK 4G-27","OBJECT_ID":"2025-009AJ","EPOCH":"2026-07-06T16:56:43.126080","CLASSIFICATION_TYPE":"U","MEAN_MOTION":15.29695085,"ECCENTRICITY":0.000171,"INCLINATION":97.3924,"RA_OF_ASC_NODE":268.9896,"ARG_OF_PERICENTER":194.1657,"MEAN_ANOMALY":165.9535,"EPHEMERIS_TYPE":0,"NORAD_CAT_ID":62641,"ELEMENT_SET_NO":999,"REV_AT_EPOCH":8188,"BSTAR":0.00032762,"MEAN_MOTION_DOT":0.00009352,"MEAN_MOTION_DDOT":0},{"OBJECT_NAME":"FLOCK 4G-29","OBJECT_ID":"2025-009AK","EPOCH":"2026-07-06T16:36:05.078880","CLASSIFICATION_TYPE":"U","MEAN_MOTION":15.29763032,"ECCENTRICITY":0.000253,"INCLINATION":97.4013,"RA_OF_ASC_NODE":269.5768,"ARG_OF_PERICENTER":192.8924,"MEAN_ANOMALY":167.2252,"EPHEMERIS_TYPE":0,"NORAD_CAT_ID":62642,"ELEMENT_SET_NO":999,"REV_AT_EPOCH":8188,"BSTAR":0.00025589,"MEAN_MOTION_DOT":0.00007302,"MEAN_MOTION_DDOT":0},{"OBJECT_NAME":"FLOCK 4G-22","OBJECT_ID":"2025-009AN","EPOCH":"2026-07-06T17:01:53.963040","CLASSIFICATION_TYPE":"U","MEAN_MOTION":15.29657936,"ECCENTRICITY":0.0002131,"INCLINATION":97.4,"RA_OF_ASC_NODE":269.6311,"ARG_OF_PERICENTER":185.6343,"MEAN_ANOMALY":174.4873,"EPHEMERIS_TYPE":0,"NORAD_CAT_ID":62645,"ELEMENT_SET_NO":999,"REV_AT_EPOCH":8190,"BSTAR":0.00030795,"MEAN_MOTION_DOT":0.00008776,"MEAN_MOTION_DDOT":0}]}
